HYPERFIELD-1A           
1 60562U 24149CY  26068.76488211  .00008569  00000+0  30052-3 0  9998
2 60562  97.3842 149.5066 0003865 313.7844  46.3076 15.29681349 86836
STARLINK-35366          
1 66512U 25263AD  26068.13635428  .00028456  00000+0  10386-2 0  9996
2 66512  43.0014 353.8669 0007220 234.1942 125.8239 15.27591667 18817
